{"type":"FeatureCollection","metadata":{"source":"한국자산관리공사 온비드","updatedAt":"2026-09-26T07:47:06.014276+00:00","itemCount":15,"apiRowsRead":692},"features":[{"type":"Feature","geometry":{"type":"Point","coordinates":[126.9406509,37.5025139]},"properties":{"id":"2025-00406-005","type":"다세대주택","address":"서울특별시 동작구 상도동 29-62 제2층 제201호","locationPrecision":"neighborhood","appraisalPrice":451000000,"minimumPrice":451000000,"priceRatio":100,"discountRate":0,"failedCount":0,"bidStart":"202611091400","bidEnd":"202611111700","status":"입찰준비중","area":"토지 31.856m² · 건물 52.38m²","sourceUrl":"https://www.onbid.co.kr/","updatedAt":"2026-09-26"}},{"type":"Feature","geometry":{"type":"Point","coordinates":[126.9043847,37.4385754]},"properties":{"id":"2026-05131-001","type":"연립주택","address":"서울특별시 금천구 시흥동 1004 제2동 제1층 제112호","locationPrecision":"neighborhood","appraisalPrice":383000000,"minimumPrice":383000000,"priceRatio":100,"discountRate":0,"failedCount":0,"bidStart":"202611091400","bidEnd":"202611111700","status":"입찰준비중","area":"토지 61.18m² · 건물 47.46m²","sourceUrl":"https://www.onbid.co.kr/","updatedAt":"2026-09-26"}},{"type":"Feature","geometry":{"type":"Point","coordinates":[126.8857391,37.4965405]},"properties":{"id":"2026-10533-001","type":"오피스텔","address":"서울특별시 구로구 구로동 1127-25 외 1필지 몽삐에뜨3차 제2층 제204호","locationPrecision":"neighborhood","appraisalPrice":199000000,"minimumPrice":199000000,"priceRatio":100,"discountRate":0,"failedCount":0,"bidStart":"202611091400","bidEnd":"202611111700","status":"입찰준비중","area":"토지 11.824m² · 건물 21.96m²","sourceUrl":"https://www.onbid.co.kr/","updatedAt":"2026-09-26"}},{"type":"Feature","geometry":{"type":"Point","coordinates":[127.0081135,37.5395482]},"properties":{"id":"2026-12513-001","type":"아파트","address":"서울특별시 성동구 옥수동 428 옥수동극동아파트 제2동 제9층 제901호(지분 1/2)","locationPrecision":"neighborhood","appraisalPrice":1395000000,"minimumPrice":1395000000,"priceRatio":100,"discountRate":0,"failedCount":0,"bidStart":"202611091400","bidEnd":"202611111700","status":"입찰준비중","area":"토지 36.17m² · 건물 74.115m²","sourceUrl":"https://www.onbid.co.kr/","updatedAt":"2026-09-26"}},{"type":"Feature","geometry":{"type":"Point","coordinates":[126.9236807,37.5939767]},"properties":{"id":"2026-17393-001","type":"다세대주택","address":"서울특별시 은평구 응암동 197-11 호안빌 제4층 제401호","locationPrecision":"neighborhood","appraisalPrice":247000000,"minimumPrice":247000000,"priceRatio":100,"discountRate":0,"failedCount":0,"bidStart":"202611091400","bidEnd":"202611111700","status":"입찰준비중","area":"토지 17.33m² · 건물 26.77m²","sourceUrl":"https://www.onbid.co.kr/","updatedAt":"2026-09-26"}},{"type":"Feature","geometry":{"type":"Point","coordinates":[126.9043847,37.4385754]},"properties":{"id":"2026-17780-001","type":"다세대주택","address":"서울특별시 금천구 시흥동 3-8 외 1필지 한솔그린빌 제비동 제2층 제201호","locationPrecision":"neighborhood","appraisalPrice":240000000,"minimumPrice":240000000,"priceRatio":100,"discountRate":0,"failedCount":0,"bidStart":"202611091400","bidEnd":"202611111700","status":"입찰준비중","area":"토지 35.14m² · 건물 61.49m²","sourceUrl":"https://www.onbid.co.kr/","updatedAt":"2026-09-26"}},{"type":"Feature","geometry":{"type":"Point","coordinates":[126.871092,37.5276611]},"properties":{"id":"2026-17874-001","type":"다세대주택","address":"서울특별시 양천구 목동 654-1 외 1필지 루아808 제3층 제301호","locationPrecision":"neighborhood","appraisalPrice":353000000,"minimumPrice":353000000,"priceRatio":100,"discountRate":0,"failedCount":0,"bidStart":"202611091400","bidEnd":"202611111700","status":"입찰준비중","area":"토지 15.58m² · 건물 23.23m²","sourceUrl":"https://www.onbid.co.kr/","updatedAt":"2026-09-26"}},{"type":"Feature","geometry":{"type":"Point","coordinates":[126.871092,37.5276611]},"properties":{"id":"2026-17874-003","type":"다세대주택","address":"서울특별시 양천구 목동 654-1 외 1필지 루아 808 제4층 제404호","locationPrecision":"neighborhood","appraisalPrice":353000000,"minimumPrice":353000000,"priceRatio":100,"discountRate":0,"failedCount":0,"bidStart":"202611091400","bidEnd":"202611111700","status":"입찰준비중","area":"토지 15.58m² · 건물 23.23m²","sourceUrl":"https://www.onbid.co.kr/","updatedAt":"2026-09-26"}},{"type":"Feature","geometry":{"type":"Point","coordinates":[126.871092,37.5276611]},"properties":{"id":"2026-18395-002","type":"다세대주택","address":"서울특별시 양천구 목동 774-4 제지하층 제비01호","locationPrecision":"neighborhood","appraisalPrice":186000000,"minimumPrice":186000000,"priceRatio":100,"discountRate":0,"failedCount":0,"bidStart":"202611091400","bidEnd":"202611111700","status":"입찰준비중","area":"토지 27.79m² · 건물 53.5m²","sourceUrl":"https://www.onbid.co.kr/","updatedAt":"2026-09-26"}},{"type":"Feature","geometry":{"type":"Point","coordinates":[127.107654,37.6044089]},"properties":{"id":"2023-05189-009","type":"다세대주택","address":"서울특별시 중랑구 망우동 400-14 힐탑2 제2층 제203호","locationPrecision":"neighborhood","appraisalPrice":101000000,"minimumPrice":9090000,"priceRatio":9,"discountRate":91,"failedCount":10,"bidStart":"202611021400","bidEnd":"202611041700","status":"입찰준비중","area":"토지 9.61m² · 건물 14.91m²","sourceUrl":"https://www.onbid.co.kr/","updatedAt":"2026-09-26"}},{"type":"Feature","geometry":{"type":"Point","coordinates":[126.8193785,37.5512811]},"properties":{"id":"2025-14068-001","type":"다세대주택","address":"서울특별시 강서구 외발산동 221-13 제지하층 제비03호","locationPrecision":"neighborhood","appraisalPrice":89000000,"minimumPrice":8010000,"priceRatio":9,"discountRate":91,"failedCount":10,"bidStart":"202611021400","bidEnd":"202611041700","status":"입찰준비중","area":"토지 23.41m² · 건물 40.56m²","sourceUrl":"https://www.onbid.co.kr/","updatedAt":"2026-09-26"}},{"type":"Feature","geometry":{"type":"Point","coordinates":[126.8857391,37.4965405]},"properties":{"id":"2026-08267-001","type":"오피스텔","address":"서울특별시 구로구 구로동 97 로제리움2차 제15층 제1505호","locationPrecision":"neighborhood","appraisalPrice":126000000,"minimumPrice":113400000,"priceRatio":90,"discountRate":10,"failedCount":0,"bidStart":"202611021400","bidEnd":"202611041700","status":"입찰준비중","area":"토지 2.54m² · 건물 14.91m²","sourceUrl":"https://www.onbid.co.kr/","updatedAt":"2026-09-26"}},{"type":"Feature","geometry":{"type":"Point","coordinates":[126.9406509,37.5025139]},"properties":{"id":"2026-08270-003","type":"단독주택","address":"서울특별시 동작구 상도동 193-48 [토지 및 건물]","locationPrecision":"neighborhood","appraisalPrice":360583333,"minimumPrice":324526000,"priceRatio":90,"discountRate":10,"failedCount":0,"bidStart":"202611021400","bidEnd":"202611041700","status":"입찰준비중","area":"토지 25.5882m² · 건물 45.4712m²","sourceUrl":"https://www.onbid.co.kr/","updatedAt":"2026-09-26"}},{"type":"Feature","geometry":{"type":"Point","coordinates":[126.8857391,37.4965405]},"properties":{"id":"2026-09756-003","type":"잡종지","address":"서울특별시 구로구 구로동 603-12 , 603-50[토지]","locationPrecision":"neighborhood","appraisalPrice":782100000,"minimumPrice":703890000,"priceRatio":90,"discountRate":10,"failedCount":0,"bidStart":"202611021400","bidEnd":"202611041700","status":"입찰준비중","area":"토지 110m² · 건물 0m²","sourceUrl":"https://www.onbid.co.kr/","updatedAt":"2026-09-26"}},{"type":"Feature","geometry":{"type":"Point","coordinates":[126.9406509,37.5025139]},"properties":{"id":"2026-10753-002","type":"기타주거용건물","address":"서울특별시 동작구 상도동 7-9 홈씨아트로얄 제3층 제301호","locationPrecision":"neighborhood","appraisalPrice":402000000,"minimumPrice":321600000,"priceRatio":80,"discountRate":20,"failedCount":0,"bidStart":"202611091400","bidEnd":"202611111700","status":"입찰준비중","area":"토지 24.59m² · 건물 45.45m²","sourceUrl":"https://www.onbid.co.kr/","updatedAt":"2026-09-26"}}]}
